ARIANE 5 R/B            
1 28499U 04049H   25342.47496793  .00001975  00000+0  22482-3 0  9996
2 28499  98.2522 142.6034 0083384 286.9804  72.2284 14.84997296132252
CZ-2D R/B               
1 28738U 05024B   25342.59822943  .00029901  00000+0  48219-3 0  9994
2 28738  97.3634 349.9366 0006115  20.5413 339.6085 15.52855332125618
ALOS (DAICHI)           
1 28931U 06002A   25342.88226652  .00002805  00000+0  48174-3 0  9997
2 28931  98.1089 294.3967 0000976 112.4830 247.6479 14.69470686 60142
H-2A R/B                
1 28932U 06002B   25342.82119676  .00014897  00000+0  78410-3 0  9999
2 28932  98.2319 117.2501 0054497 189.6387 170.3802 15.14445262 80672
RESURS-DK 1             
1 29228U 06021A   25342.79521953  .00004953  00000+0  29267-3 0  9998
2 29228  69.9338 112.0315 0007608 262.3971  97.6331 15.12128967 73783
CZ-4B R/B               
1 29507U 06046C   25342.67636756  .00007702  00000+0  40121-3 0  9997
2 29507  97.5733  22.8254 0033029 220.9958 138.8791 15.15807590 46259
CZ-2C R/B               
1 31114U 07010B   25342.84380865  .00000384  00000+0  19588-3 0  9994
2 31114  98.3974  95.6908 0058757 197.3534 162.5636 14.20207847966828
COSMO-SKYMED 1          
1 31598U 07023A   25342.84121197  .00006214  00000+0  56303-3 0  9999
2 31598  97.8834 168.2152 0001053  81.7095 278.4245 14.95720476  1324
COSMOS 2428             
1 31792U 07029A   25342.56129418  .00000125  00000+0  92769-4 0  9996
2 31792  70.9370  34.6531 0003427  29.7305 330.4010 14.12888452951227
SL-16 R/B               
1 31793U 07029B   25342.80531983 -.00000154  00000+0 -54892-4 0  9997
2 31793  70.9760   3.4289 0002305 263.6526 268.7049 14.14815115952519
KORONAS-FOTON           
1 33504U 09003A   25342.79369822  .00016550  00000+0  39849-3 0  9991
2 33504  82.4308  10.1940 0013067 120.7954 239.4580 15.41047254931739
CZ-2C R/B               
1 37731U 11030B   25342.80959851  .00003118  00000+0  40155-3 0  9997
2 37731  97.8412 297.0032 0051437 286.7924 132.6165 14.80883075776643
H-2A R/B                
1 38341U 12025E   25342.82323014  .00006128  00000+0  56442-3 0  9998
2 38341  98.4597 297.7512 0043665 249.2928 110.3607 14.94409617734643
SHIJIAN-16 (SJ-16)      
1 39358U 13057A   25342.84719831  .00001619  00000+0  16224-3 0  9995
2 39358  74.9729 357.0208 0017482 328.8654  31.1496 14.91969243657955
SL-4 R/B                
1 39679U 14021B   25342.64863309  .00017207  00000+0  40816-3 0  9995
2 39679  51.6073  60.4745 0102169 131.4435 229.5380 15.36517716642265
ALOS-2                  
1 39766U 14029A   25342.82031258  .00003404  00000+0  46270-3 0  9994
2 39766  97.9230  77.7223 0001453 101.1392 258.9983 14.79457487623439
YAOGAN-29               
1 41038U 15069A   25342.83844741  .00001136  00000+0  14693-3 0  9998
2 41038  98.0217   5.9972 0000458 354.6320   5.4888 14.82877209542414
ASTRO-H (HITOMI)        
1 41337U 16012A   25342.85452057  .00005567  00000+0  33464-3 0  9995
2 41337  30.9983 222.4199 0009504 139.6922 220.4421 15.09317164538492
HXMT (HUIYAN)           
1 42758U 17034A   25342.83819411  .00005919  00000+0  30906-3 0  9996
2 42758  43.0127 161.2781 0032027  18.2840 341.9151 15.16197453468743
CZ-2C R/B               
1 43521U 18054D   25342.67438848  .00109938  00000+0  75953-3 0  9998
2 43521  35.1323 208.4480 0016015 100.7991 259.4545 15.73043755414418
SAOCOM 1A               
1 43641U 18076A   25342.75628733  .00000999  00000+0  13210-3 0  9993
2 43641  97.8853 167.2368 0001487  87.0391 273.0993 14.82151495387899
H-2A R/B                
1 43682U 18084L   25342.78701300  .00025925  00000+0  70493-3 0  9994
2 43682  98.8776 176.0473 0027669 340.1588  19.8573 15.37155800391794
SAOCOM 1B               
1 46265U 20059A   25342.85505391  .00000763  00000+0  10234-3 0  9999
2 46265  97.8836 166.4342 0001286  81.7791 278.3568 14.82153016285298
CSS (TIANHE)            
1 48274U 21035A   25342.61491639  .00028320  00000+0  35728-3 0  9993
2 48274  41.4682  41.7451 0009131 357.4459   2.6332 15.58905517263389
COSMOS 2550             
1 48865U 21056A   25342.87880453  .00003483  00000+0  11163-3 0  9996
2 48865  67.1454 315.6116 0008281 268.6169  91.4036 15.33839196249534
CZ-2C R/B               
1 52794U 22058K   25342.41872325  .00032755  00000+0  59157-3 0  9993
2 52794  50.1913  65.5806 0045814 180.5819 179.5103 15.48206192195966
CZ-2C R/B               
1 54039U 22132E   25342.74452853  .00041423  00000+0  62230-3 0  9994
2 54039  97.2947 338.8673 0023490  70.1854 290.1930 15.54443169176215
GSLV R/B                
1 54149U 22138AN  25342.84267263  .00004078  00000+0  35831-3 0  9994
2 54149  87.3826 196.7793 0023862 118.4087 241.9553 14.96101764170344
XRISM                   
1 57800U 23137A   25342.73669853  .00007683  00000+0  45183-3 0  9996
2 57800  31.0004 151.3882 0007688 204.8900 155.1367 15.10278561124023
ACS3                    
1 59588U 24077B   25342.85385226  .00040832  00000+0  34988-1 0  9999
2 59588  97.2718 299.3276 0077914 347.2520  12.6669 13.85213316 81608
SZ-21 MODULE            
1 66515U 25246C   25342.51202554  .00030446  00000+0  33876-3 0  9998
2 66515  41.4773  41.8306 0006238 236.9164 123.1077 15.62178331  3789
